[{"OBJECT_NAME":"TIANMU-1 10","OBJECT_ID":"2023-101D","EPOCH":"2026-03-09T23:06:46.939392","MEAN_MOTION":15.2921896,"ECCENTRICITY":0.00069292,"INCLINATION":97.2749,"RA_OF_ASC_NODE":122.1027,"ARG_OF_PERICENTER":133.6162,"MEAN_ANOMALY":226.5654,"EPHEMERIS_TYPE":0,"CLASSIFICATION_TYPE":"U","NORAD_CAT_ID":57402,"ELEMENT_SET_NO":999,"REV_AT_EPOCH":14647,"BSTAR":0.00032238884,"MEAN_MOTION_DOT":9.075e-5,"MEAN_MOTION_DDOT":0},{"OBJECT_NAME":"STARLINK-35687","OBJECT_ID":"2025-265J","EPOCH":"2026-03-09T21:59:05.638272","MEAN_MOTION":15.27605426,"ECCENTRICITY":0.00016374,"INCLINATION":43.0008,"RA_OF_ASC_NODE":277.0378,"ARG_OF_PERICENTER":295.7598,"MEAN_ANOMALY":64.3085,"EPHEMERIS_TYPE":0,"CLASSIFICATION_TYPE":"U","NORAD_CAT_ID":66524,"ELEMENT_SET_NO":999,"REV_AT_EPOCH":1714,"BSTAR":0.0013181707,"MEAN_MOTION_DOT":0.00036218,"MEAN_MOTION_DDOT":0}]
